NAVSTAR 48 (USA 151)    
1 26407U 00040A   26170.52622376  .00000021  00000+0  00000+0 0  9993
2 26407  54.8511 215.0693 0121008 302.4933 230.1765  2.00557683189993
NAVSTAR 51 (USA 166)    
1 27663U 03005A   26170.11434726  .00000023  00000+0  00000+0 0  9999
2 27663  54.8818 214.8923 0147943  53.0786 318.2164  2.00560452171352
NAVSTAR 54 (USA 177)    
1 28190U 04009A   26170.36996407 -.00000056  00000+0  00000+0 0  9993
2 28190  54.8278 275.5990 0116235 173.1786 175.7723  2.00554625162981
NAVSTAR 56 (USA 180)    
1 28474U 04045A   26170.54546882 -.00000090  00000+0  00000+0 0  9994
2 28474  55.1343 324.8011 0169883 316.4803 224.1359  2.00555949158477
NAVSTAR 57 (USA 183)    
1 28874U 05038A   26170.40280896 -.00000053  00000+0  00000+0 0  9995
2 28874  54.8761 273.0881 0127887 296.1755 105.2220  2.00565487151881
INMARSAT 4-F2           
1 28899U 05044A   26169.99455471 -.00000269  00000+0  00000+0 0  9993
2 28899   5.0979  43.7024 0002992  36.2700 328.7738  1.00272203 75544
NAVSTAR 58 (USA 190)    
1 29486U 06042A   26169.13028664  .00000049  00000+0  00000+0 0  9996
2 29486  54.7109 151.3015 0106649  54.4413  46.6051  2.00569747144416
NAVSTAR 59 (USA 192)    
1 29601U 06052A   26167.42124558  .00000054  00000+0  00000+0 0  9991
2 29601  54.9348 214.0365 0085218  90.8278 270.2339  2.00557832143390
NAVSTAR 60 (USA 196)    
1 32260U 07047A   26169.22203141 -.00000033  00000+0  00000+0 0  9995
2 32260  54.0959  80.0229 0166811  87.3939 274.5281  2.00555096136832
COSMOS 2433 [GLONASS-M] 
1 32275U 07052A   26169.32339645 -.00000055  00000+0  00000+0 0  9991
2 32275  65.5762 315.8954 0002576 193.7419 166.2393  2.13103991145088
COSMOS 2432 [GLONASS-M] 
1 32276U 07052B   26169.43377550 -.00000056  00000+0  00000+0 0  9992
2 32276  65.5932 316.0195 0007652 331.4172  57.1212  2.13103035145116
NAVSTAR 61 (USA 199)    
1 32384U 07062A   26170.52633721 -.00000055  00000+0  00000+0 0  9999
2 32384  55.0297 274.0586 0035774 165.7035 183.4275  2.00560201135550
COSMOS 2434 [GLONASS-M] 
1 32393U 07065A   26168.15492016  .00000065  00000+0  00000+0 0  9998
2 32393  64.3178 191.9169 0001197 336.0402  97.3647  2.13101292143772
COSMOS 2436 [GLONASS-M] 
1 32395U 07065C   26170.29443221  .00000057  00000+0  00000+0 0  9993
2 32395  64.3268 191.9169 0017262 353.8381  53.2291  2.13100044143777
NAVSTAR 62 (USA 201)    
1 32711U 08012A   26170.13035488  .00000056  00000+0  00000+0 0  9992
2 32711  54.4977 149.8471 0211289 247.8711 109.8486  2.00572446133798
NAVSTAR 64 (USA 206)    
1 35752U 09043A   26170.28992177 -.00000091  00000+0  00000+0 0  9998
2 35752  56.2117  27.3690 0053764  83.2686  41.5853  2.00554114123409
COSMOS 2456 [GLONASS-M] 
1 36111U 09070A   26170.35461873 -.00000034  00000+0  00000+0 0  9997
2 36111  65.0124  70.8982 0004528 334.2315 144.8560  2.13103516128478
COSMOS 2457 [GLONASS-M] 
1 36112U 09070B   26170.28409466 -.00000033  00000+0  00000+0 0  9999
2 36112  64.9980  70.7445 0002927 121.9797  70.3947  2.13101026128472
COSMOS 2460 [GLONASS-M] 
1 36402U 10007C   26170.50207319 -.00000058  00000+0  00000+0 0  9998
2 36402  65.4189 314.3886 0002124 112.6224 248.9388  2.13101465126789
NAVSTAR 65 (USA 213)    
1 36585U 10022A   26169.95893719  .00000030  00000+0  00000+0 0  9998
2 36585  54.2700 208.4906 0126325  66.1044 298.5030  2.00562484117632
BEIDOU-2 IGSO-1         
1 36828U 10036A   26169.91605881 -.00000085  00000+0  00000+0 0  9991
2 36828  54.3027 162.9431 0059157 225.2467 316.3793  1.00271895 58111
BEIDOU-2 G4             
1 37210U 10057A   26170.51517642 -.00000120  00000+0  00000+0 0  9995
2 37210   3.6537  68.9366 0005278 195.9058 348.3507  1.00270648 57310
BEIDOU-2 IGSO-2         
1 37256U 10068A   26170.57261900 -.00000223  00000+0  00000+0 0  9990
2 37256  47.5433 271.8012 0055941 212.7842  97.3145  1.00282099 56812
BEIDOU-2 IGSO-3         
1 37384U 11013A   26169.61194170 -.00000190  00000+0  00000+0 0  9993
2 37384  62.4088  40.1377 0034295 184.6608  10.0015  1.00267082 55679
GSAT-8                  
1 37605U 11022A   26170.11968523  .00000078  00000+0  00000+0 0  9991
2 37605   2.1371  81.8005 0002058 198.1712  85.5454  1.00271297 53236
BEIDOU-2 IGSO-4         
1 37763U 11038A   26167.68545095  .00000019  00000+0  00000+0 0  9991
2 37763  54.6000 165.6770 0159519 231.4431 207.9860  1.00285273 54642
GSAT0101 (GALILEO-PFM)  
1 37846U 11060A   26167.84840131 -.00000088  00000+0  00000+0 0  9992
2 37846  56.9944 341.7702 0002996  53.3752 306.6473  1.70475567 91115
GSAT0102 (GALILEO-FM2)  
1 37847U 11060B   26170.11569855 -.00000094  00000+0  00000+0 0  9995
2 37847  56.9943 341.7092 0003007  14.4392 342.6958  1.70475868 91155
COSMOS 2476 [GLONASS-M] 
1 37867U 11064A   26169.63043072 -.00000025  00000+0  00000+0 0  9998
2 37867  65.2707  72.8228 0022663 238.8292 313.0156  2.13103712113792
COSMOS 2477 [GLONASS-M] 
1 37868U 11064B   26170.32537453 -.00000030  00000+0  00000+0 0  9994
2 37868  65.2775  72.8786 0019692 240.1394 305.1787  2.13102883113806
COSMOS 2475 [GLONASS-M] 
1 37869U 11064C   26170.36249046 -.00000031  00000+0  00000+0 0  9998
2 37869  65.2843  72.8991 0025436 253.1118 275.7902  2.13101695113814
